{
  "type": "FeatureCollection",
  "features": [
    {
      "type": "Feature",
      "properties": {},
      "geometry": {
        "coordinates": [
          [
            13.528910144449071,
            51.08296380286944
          ],
          [
            20.63842508474329,
            51.03854914457324
          ],
          [
            18.4237059099124,
            47.598329599422584
          ],
          [
            12.152661100083236,
            48.09634076140887
          ],
          [
            13.99599585616113,
            51.11893700203109
          ]
        ],
        "type": "LineString"
      }
    }
  ]
}